{
    "links": {
        "self": "http://www.neowsapp.com/rest/v1/neo/3720441?api_key=iIulBulltgU6a56xZRHN4H3l9WmuAYTsLGpBGhQ2"
    },
    "id": "3720441",
    "neo_reference_id": "3720441",
    "name": "(2015 KM122)",
    "designation": "2015 KM122",
    "nasa_jpl_url": "http://ssd.jpl.nasa.gov/sbdb.cgi?sstr=3720441",
    "absolute_magnitude_h": 23.8,
    "estimated_diameter": {
        "kilometers": {
            "estimated_diameter_min": 0.046190746,
            "estimated_diameter_max": 0.1032856481
        },
        "meters": {
            "estimated_diameter_min": 46.1907460282,
            "estimated_diameter_max": 103.2856480504
        },
        "miles": {
            "estimated_diameter_min": 0.0287015901,
            "estimated_diameter_max": 0.0641787064
        },
        "feet": {
            "estimated_diameter_min": 151.544447199,
            "estimated_diameter_max": 338.8636855496
        }
    },
    "is_potentially_hazardous_asteroid": false,
    "close_approach_data": [
        {
            "close_approach_date": "2015-06-04",
            "close_approach_date_full": "2015-Jun-04 22:38",
            "epoch_date_close_approach": 1433457480000,
            "relative_velocity": {
                "kilometers_per_second": "6.6933556384",
                "kilometers_per_hour": "24096.0802980756",
                "miles_per_hour": "14972.3672274348"
            },
            "miss_distance": {
                "astronomical": "0.1289687537",
                "lunar": "50.1688451893",
                "kilometers": "19293450.850074619",
                "miles": "11988394.4489989822"
            },
            "orbiting_body": "Earth"
        }
    ],
    "orbital_data": {
        "orbit_id": "7",
        "orbit_determination_date": "2017-04-06 08:33:24",
        "first_observation_date": "2015-05-25",
        "last_observation_date": "2015-06-14",
        "data_arc_in_days": 20,
        "observations_used": 33,
        "orbit_uncertainty": "7",
        "minimum_orbit_intersection": ".105181",
        "jupiter_tisserand_invariant": "3.469",
        "epoch_osculation": "2459000.5",
        "eccentricity": ".4969301235289532",
        "semi_major_axis": "2.221806952858306",
        "inclination": "6.46843033151831",
        "ascending_node_longitude": "60.05675837653181",
        "orbital_period": "1209.644928919459",
        "perihelion_distance": "1.117724149316941",
        "perihelion_argument": "186.2504029457293",
        "aphelion_distance": "3.32588975639967",
        "perihelion_time": "2459594.052859549117",
        "mean_anomaly": "183.3539245036513",
        "mean_motion": ".2976079933816426",
        "equinox": "J2000",
        "orbit_class": {
            "orbit_class_type": "AMO",
            "orbit_class_description": "Near-Earth asteroid orbits similar to that of 1221 Amor",
            "orbit_class_range": "1.017 AU < q (perihelion) < 1.3 AU"
        }
    },
    "is_sentry_object": false
}